start=new Date('2023-02-13T00:00:00.000Z').valueOf();
sats=[{"MEAN_ELEMENT_THEORY":"SGP4","MEAN_ANOMALY":"277.5657","SITE":"AFWTR","RCS_SIZE":"LARGE","OBJECT_ID":"2022-051AA","FILE":"3788106","COUNTRY_CODE":"US","OBJECT_NAME":"STARLINK-3943","APOAPSIS":"540.610","TLE_LINE2":"2 52557  53.2125 120.3850 0001117  82.5462 277.5657 15.08809992 42321","SEMIMAJOR_AXIS":"6917.972","ECCENTRICITY":"0.00011170","RA_OF_ASC_NODE":"120.3850","TLE_LINE1":"1 52557U 22051AA  23043.93543389  .00053168  00000-0  33364-2 0  9994","EPOCH":"2023-02-12T22:27:01.488096","MEAN_MOTION_DDOT":"0.0000000000000","INCLINATION":"53.2125","GP_ID":"225275066","TIME_SYSTEM":"UTC","MEAN_MOTION":"15.08809992","PERIAPSIS":"539.064","CLASSIFICATION_TYPE":"U","EPHEMERIS_TYPE":"0","ARG_OF_PERICENTER":"82.5462","PERIOD":"95.439","BSTAR":"0.00333640000000","REV_AT_EPOCH":"4232","ELEMENT_SET_NO":"999","LAUNCH_DATE":"2022-05-13","CENTER_NAME":"EARTH","NORAD_CAT_ID":"52557","MEAN_MOTION_DOT":"0.00053168","OBJECT_TYPE":"PAYLOAD","DECAY_DATE":null,"REF_FRAME":"TEME"},{"RA_OF_ASC_NODE":"110.6761","ECCENTRICITY":"0.00008950","SEMIMAJOR_AXIS":"6917.853","TLE_LINE2":"2 52558  53.2188 110.6761 0000895 103.3398 256.7694 15.08848940 42445","APOAPSIS":"540.337","COUNTRY_CODE":"US","OBJECT_NAME":"STARLINK-3954","FILE":"3788105","OBJECT_ID":"2022-051AB","RCS_SIZE":"LARGE","SITE":"AFWTR","MEAN_ANOMALY":"256.7694","MEAN_ELEMENT_THEORY":"SGP4","REF_FRAME":"TEME","DECAY_DATE":null,"OBJECT_TYPE":"PAYLOAD","MEAN_MOTION_DOT":"-0.00000085","NORAD_CAT_ID":"52558","LAUNCH_DATE":"2022-05-13","CENTER_NAME":"EARTH","ELEMENT_SET_NO":"999","REV_AT_EPOCH":"4244","BSTAR":"0.00001274300000","PERIOD":"95.437","EPHEMERIS_TYPE":"0","ARG_OF_PERICENTER":"103.3398","CLASSIFICATION_TYPE":"U","PERIAPSIS":"539.099","MEAN_MOTION":"15.08848940","GP_ID":"225275181","TIME_SYSTEM":"UTC","INCLINATION":"53.2188","MEAN_MOTION_DDOT":"0.0000000000000","EPOCH":"2023-02-12T20:52:56.800704","TLE_LINE1":"1 52558U 22051AB  23043.87010186 -.00000085  00000-0  12743-4 0  9993"},{"RA_OF_ASC_NODE":"112.5321","ECCENTRICITY":"0.00015060","APOAPSIS":"545.782","TLE_LINE2":"2 52559  53.2166 112.5321 0001506  88.7231 271.3933 15.07207695 42317","FILE":"3787692","OBJECT_NAME":"STARLINK-3953","COUNTRY_CODE":"US","SEMIMAJOR_AXIS":"6922.874","RCS_SIZE":"LARGE","OBJECT_ID":"2022-051AC","MEAN_ELEMENT_THEORY":"SGP4","SITE":"AFWTR","MEAN_ANOMALY":"271.3933","MEAN_MOTION_DOT":"0.00001753","NORAD_CAT_ID":"52559","LAUNCH_DATE":"2022-05-13","CENTER_NAME":"EARTH","OBJECT_TYPE":"PAYLOAD","REF_FRAME":"TEME","DECAY_DATE":null,"BSTAR":"0.00013374000000","REV_AT_EPOCH":"4231","PERIOD":"95.541","ELEMENT_SET_NO":"999","TIME_SYSTEM":"UTC","GP_ID":"225235707","INCLINATION":"53.2166","CLASSIFICATION_TYPE":"U","EPHEMERIS_TYPE":"0","ARG_OF_PERICENTER":"88.7231","MEAN_MOTION":"15.07207695","PERIAPSIS":"543.697","TLE_LINE1":"1 52559U 22051AC  23043.47318485  .00001753  00000-0  13374-3 0  9995","MEAN_MOTION_DDOT":"0.0000000000000","EPOCH":"2023-02-12T11:21:23.171040"},{"PERIOD":"95.436","BSTAR":"0.00039978000000","REV_AT_EPOCH":"4241","ELEMENT_SET_NO":"999","LAUNCH_DATE":"2022-05-13","CENTER_NAME":"EARTH","NORAD_CAT_ID":"52560","MEAN_MOTION_DOT":"0.00006085","OBJECT_TYPE":"PAYLOAD","REF_FRAME":"TEME","DECAY_DATE":null,"TLE_LINE1":"1 52560U 22051AD  23043.66770523  .00006085  00000-0  39978-3 0  9994","EPOCH":"2023-02-12T16:01:29.731872","MEAN_MOTION_DDOT":"0.0000000000000","INCLINATION":"53.2154","TIME_SYSTEM":"UTC","GP_ID":"225275057","MEAN_MOTION":"15.08865850","PERIAPSIS":"538.604","CLASSIFICATION_TYPE":"U","ARG_OF_PERICENTER":"77.8770","EPHEMERIS_TYPE":"0","FILE":"3788105","OBJECT_NAME":"STARLINK-3956","COUNTRY_CODE":"US","APOAPSIS":"540.728","TLE_LINE2":"2 52560  53.2154 111.5853 0001535  77.8770 282.2394 15.08865850 42411","SEMIMAJOR_AXIS":"6917.801","ECCENTRICITY":"0.00015350","RA_OF_ASC_NODE":"111.5853","MEAN_ELEMENT_THEORY":"SGP4","SITE":"AFWTR","MEAN_ANOMALY":"282.2394","RCS_SIZE":"LARGE","OBJECT_ID":"2022-051AD"},{"REF_FRAME":"TEME","DECAY_DATE":null,"OBJECT_TYPE":"PAYLOAD","LAUNCH_DATE":"2022-05-13","CENTER_NAME":"EARTH","MEAN_MOTION_DOT":"0.00003958","NORAD_CAT_ID":"52561","ELEMENT_SET_NO":"999","PERIOD":"95.437","REV_AT_EPOCH":"4224","BSTAR":"0.00026654000000","PERIAPSIS":"539.311","MEAN_MOTION":"15.08845662","EPHEMERIS_TYPE":"0","ARG_OF_PERICENTER":"85.4950","CLASSIFICATION_TYPE":"U","INCLINATION":"53.2143","GP_ID":"225275070","TIME_SYSTEM":"UTC","EPOCH":"2023-02-12T21:57:12.957120","MEAN_MOTION_DDOT":"0.0000000000000","TLE_LINE1":"1 52561U 22051AE  23043.91473330  .00003958  00000-0  26654-3 0  9992","ECCENTRICITY":"0.00006030","RA_OF_ASC_NODE":"125.4765","SEMIMAJOR_AXIS":"6917.863","COUNTRY_CODE":"US","OBJECT_NAME":"STARLINK-3955","FILE":"3788106","TLE_LINE2":"2 52561  53.2143 125.4765 0000603  85.4950 274.6111 15.08845662 42248","APOAPSIS":"540.145","OBJECT_ID":"2022-051AE","RCS_SIZE":"LARGE","MEAN_ANOMALY":"274.6111","SITE":"AFWTR","MEAN_ELEMENT_THEORY":"SGP4"},{"CLASSIFICATION_TYPE":"U","ARG_OF_PERICENTER":"112.5293","EPHEMERIS_TYPE":"0","MEAN_MOTION":"15.08858689","PERIAPSIS":"538.419","TIME_SYSTEM":"UTC","GP_ID":"225237443","INCLINATION":"53.2132","MEAN_MOTION_DDOT":"0.0000000000000","EPOCH":"2023-02-12T11:04:45.299424","TLE_LINE1":"1 52562U 22051AF  23043.46163541  .00018342  00000-0  11669-2 0  9995","OBJECT_TYPE":"PAYLOAD","REF_FRAME":"TEME","DECAY_DATE":null,"MEAN_MOTION_DOT":"0.00018342","NORAD_CAT_ID":"52562","LAUNCH_DATE":"2022-05-13","CENTER_NAME":"EARTH","ELEMENT_SET_NO":"999","BSTAR":"0.00116690000000","REV_AT_EPOCH":"4231","PERIOD":"95.436","OBJECT_ID":"2022-051AF","RCS_SIZE":"LARGE","MEAN_ANOMALY":"247.5894","SITE":"AFWTR","MEAN_ELEMENT_THEORY":"SGP4","RA_OF_ASC_NODE":"112.5142","ECCENTRICITY":"0.00018350","SEMIMAJOR_AXIS":"6917.823","APOAPSIS":"540.958","TLE_LINE2":"2 52562  53.2132 112.5142 0001835 112.5293 247.5894 15.08858689 42311","FILE":"3787692","COUNTRY_CODE":"US","OBJECT_NAME":"STARLINK-3957"},{"CENTER_NAME":"EARTH","LAUNCH_DATE":"2022-05-13","MEAN_MOTION_DOT":"0.00035365","NORAD_CAT_ID":"52563","OBJECT_TYPE":"PAYLOAD","REF_FRAME":"TEME","DECAY_DATE":null,"PERIOD":"95.438","BSTAR":"0.00222920000000","REV_AT_EPOCH":"4224","ELEMENT_SET_NO":"999","INCLINATION":"53.2142","GP_ID":"225275062","TIME_SYSTEM":"UTC","MEAN_MOTION":"15.08836927","PERIAPSIS":"538.761","CLASSIFICATION_TYPE":"U","EPHEMERIS_TYPE":"0","ARG_OF_PERICENTER":"87.6064","TLE_LINE1":"1 52563U 22051AG  23043.91841041  .00035365  00000-0  22292-2 0  9992","EPOCH":"2023-02-12T22:02:30.659424","MEAN_MOTION_DDOT":"0.0000000000000","ECCENTRICITY":"0.00014360","RA_OF_ASC_NODE":"125.4577","FILE":"3788105","COUNTRY_CODE":"US","OBJECT_NAME":"STARLINK-3942","APOAPSIS":"540.748","TLE_LINE2":"2 52563  53.2142 125.4577 0001436  87.6064 272.5093 15.08836927 42245","SEMIMAJOR_AXIS":"6917.890","RCS_SIZE":"LARGE","OBJECT_ID":"2022-051AG","MEAN_ELEMENT_THEORY":"SGP4","SITE":"AFWTR","MEAN_ANOMALY":"272.5093"},{"SEMIMAJOR_AXIS":"6917.854","FILE":"3788105","COUNTRY_CODE":"US","OBJECT_NAME":"STARLINK-3959","APOAPSIS":"540.798","TLE_LINE2":"2 52564  53.2160 125.4889 0001560  82.4047 277.7123 15.08848693 42248","ECCENTRICITY":"0.00015600","RA_OF_ASC_NODE":"125.4889","SITE":"AFWTR","MEAN_ANOMALY":"277.7123","MEAN_ELEMENT_THEORY":"SGP4","OBJECT_ID":"2022-051AH","RCS_SIZE":"LARGE","ELEMENT_SET_NO":"999","PERIOD":"95.437","BSTAR":"-0.00009926300000","REV_AT_EPOCH":"4224","OBJECT_TYPE":"PAYLOAD","REF_FRAME":"TEME","DECAY_DATE":null,"LAUNCH_DATE":"2022-05-13","CENTER_NAME":"EARTH","NORAD_CAT_ID":"52564","MEAN_MOTION_DOT":"-0.00001868","EPOCH":"2023-02-12T21:51:54.575712","MEAN_MOTION_DDOT":"0.0000000000000","TLE_LINE1":"1 52564U 22051AH  23043.91104833 -.00001868  00000-0 -99263-4 0  9991","MEAN_MOTION":"15.08848693","PERIAPSIS":"538.640","CLASSIFICATION_TYPE":"U","EPHEMERIS_TYPE":"0","ARG_OF_PERICENTER":"82.4047","INCLINATION":"53.2160","GP_ID":"225275175","TIME_SYSTEM":"UTC"},{"REF_FRAME":"TEME","DECAY_DATE":null,"OBJECT_TYPE":"PAYLOAD","LAUNCH_DATE":"2022-05-13","CENTER_NAME":"EARTH","MEAN_MOTION_DOT":"0.00002074","NORAD_CAT_ID":"52565","ELEMENT_SET_NO":"999","PERIOD":"95.437","REV_AT_EPOCH":"4240","BSTAR":"0.00014830000000","PERIAPSIS":"538.916","MEAN_MOTION":"15.08855498","EPHEMERIS_TYPE":"0","ARG_OF_PERICENTER":"92.1999","CLASSIFICATION_TYPE":"U","INCLINATION":"53.2159","GP_ID":"225212164","TIME_SYSTEM":"UTC","EPOCH":"2023-02-12T14:20:48.452928","MEAN_MOTION_DDOT":"0.0000000000000","TLE_LINE1":"1 52565U 22051AJ  23043.59778302  .00002074  00000-0  14830-3 0  9998","ECCENTRICITY":"0.00011310","RA_OF_ASC_NODE":"111.9023","SEMIMAJOR_AXIS":"6917.833","COUNTRY_CODE":"US","OBJECT_NAME":"STARLINK-3911","FILE":"3787675","TLE_LINE2":"2 52565  53.2159 111.9023 0001131  92.1999 267.9123 15.08855498 42405","APOAPSIS":"540.480","OBJECT_ID":"2022-051AJ","RCS_SIZE":"LARGE","SITE":"AFWTR","MEAN_ANOMALY":"267.9123","MEAN_ELEMENT_THEORY":"SGP4"},{"RCS_SIZE":"LARGE","OBJECT_ID":"2022-051AK","MEAN_ELEMENT_THEORY":"SGP4","MEAN_ANOMALY":"277.3201","SITE":"AFWTR","ECCENTRICITY":"0.00012950","RA_OF_ASC_NODE":"126.4920","FILE":"3788105","OBJECT_NAME":"STARLINK-3938","COUNTRY_CODE":"US","APOAPSIS":"540.500","TLE_LINE2":"2 52566  53.2130 126.4920 0001295  82.7938 277.3201 15.08886172 42215","SEMIMAJOR_AXIS":"6917.739","INCLINATION":"53.2130","TIME_SYSTEM":"UTC","GP_ID":"225275183","MEAN_MOTION":"15.08886172","PERIAPSIS":"538.708","CLASSIFICATION_TYPE":"U","EPHEMERIS_TYPE":"0","ARG_OF_PERICENTER":"82.7938","TLE_LINE1":"1 52566U 22051AK  23043.69024710  .00026754  00000-0  16906-2 0  9993","EPOCH":"2023-02-12T16:33:57.349440","MEAN_MOTION_DDOT":"0.0000000000000","LAUNCH_DATE":"2022-05-13","CENTER_NAME":"EARTH","MEAN_MOTION_DOT":"0.00026754","NORAD_CAT_ID":"52566","OBJECT_TYPE":"PAYLOAD","REF_FRAME":"TEME","DECAY_DATE":null,"PERIOD":"95.435","BSTAR":"0.00169060000000","REV_AT_EPOCH":"4221","ELEMENT_SET_NO":"999"}];
